[{"OBJECT_NAME":"STARLINK-34815","OBJECT_ID":"2025-167X","EPOCH":"2026-03-09T04:34:40.652256","MEAN_MOTION":15.30192544,"ECCENTRICITY":0.00013054,"INCLINATION":53.1601,"RA_OF_ASC_NODE":28.9619,"ARG_OF_PERICENTER":81.9313,"MEAN_ANOMALY":278.1836,"EPHEMERIS_TYPE":0,"CLASSIFICATION_TYPE":"U","NORAD_CAT_ID":65099,"ELEMENT_SET_NO":999,"REV_AT_EPOCH":3340,"BSTAR":0.00054021084,"MEAN_MOTION_DOT":0.0001567,"MEAN_MOTION_DDOT":0},{"OBJECT_NAME":"CZ-6A DEB","OBJECT_ID":"2022-151NB","EPOCH":"2026-03-09T18:26:17.609568","MEAN_MOTION":15.22372787,"ECCENTRICITY":0.00267955,"INCLINATION":98.6489,"RA_OF_ASC_NODE":154.0342,"ARG_OF_PERICENTER":180.4296,"MEAN_ANOMALY":179.6918,"EPHEMERIS_TYPE":0,"CLASSIFICATION_TYPE":"U","NORAD_CAT_ID":54601,"ELEMENT_SET_NO":999,"REV_AT_EPOCH":17694,"BSTAR":0.011449911,"MEAN_MOTION_DOT":0.00276508,"MEAN_MOTION_DDOT":0}]
